[{"OBJECT_NAME":"STARLINK-30586","OBJECT_ID":"2023-160K","EPOCH":"2026-03-09T22:00:01.999584","MEAN_MOTION":15.05382628,"ECCENTRICITY":0.00025296,"INCLINATION":43.0008,"RA_OF_ASC_NODE":79.0076,"ARG_OF_PERICENTER":239.6064,"MEAN_ANOMALY":68.6958,"EPHEMERIS_TYPE":0,"CLASSIFICATION_TYPE":"U","NORAD_CAT_ID":58084,"ELEMENT_SET_NO":999,"REV_AT_EPOCH":562,"BSTAR":0.12137098,"MEAN_MOTION_DOT":0.01932724,"MEAN_MOTION_DDOT":0},{"OBJECT_NAME":"OBJECT G","OBJECT_ID":"2025-055G","EPOCH":"2026-03-09T23:08:21.696000","MEAN_MOTION":15.22125156,"ECCENTRICITY":0.00098901,"INCLINATION":97.6329,"RA_OF_ASC_NODE":210.2777,"ARG_OF_PERICENTER":141.6478,"MEAN_ANOMALY":218.5462,"EPHEMERIS_TYPE":0,"CLASSIFICATION_TYPE":"U","NORAD_CAT_ID":63297,"ELEMENT_SET_NO":999,"REV_AT_EPOCH":5412,"BSTAR":0.0009330302,"MEAN_MOTION_DOT":0.00021381,"MEAN_MOTION_DDOT":0}]
